"Sr.No","Type","Name of the University","Address","Zip","state","Status"
"1","State","""Kaushalya"" the Skill University","Mahatma Gandhi Labour Institute (MGLI), Drive-in Road, Memnagar, Ahmedabad","380052","Gujarat","2(f)"
"2","State","A.P.J. Abdul Kalam Technological University","CET Campus, Alathara RdAmbady Nagar,Thiruvananthapuram","695016","Kerala","2(f)"
"3","State","Acharaya N.G.Ranga Agricultural University","Amaravathi Road,Lam, Guntur","522034","Andhra Pradesh","2(f)"
"4","State","Acharya Nagarjuna University","NH16,Nagarjuna Nagar,Guntur","522510","Andhra Pradesh","2(f) & 12(B)"
"5","State","Acharya Narendra Deva Krishi Evam Prodyogik Vishwavidyalaya","Kumarganj, FaizabadAyodhya","224229","Uttar Pradesh","2(f) & 12(B)"
"6","State","Adikavi Nannaya University","Raja Raja Nagar, Rajamahendravaram,","533296","Andhra Pradesh","2(f) & 12(B)"
"7","State","Agriculture University","Mandore, Jodhpur","342304","Rajasthan","2(f)"
"8","State","Alagappa University","Vallal Alagappar Valagam, KaraikudiKaraikudiSivaganga District","630003","Tamil Nadu","2(f) & 12(B)"
"9","State","Aliah University","IIA/27, New Town, KolkataNew Town, Kolkata","700160","West Bengal","2(f) & 12(B)"
"10","State","Alipurduar University","P. O. - Alipurduar Court,Dist. - Alipurduar","736122","West Bengal","2(f)"
"11","State","Anand Agricultural University","University Bhavan, Anand","388001","Gujarat","2(f)"
"12","State","Andhra Kesari University","Pernamitta, Ongole, Prakasam District","523225","Andhra Pradesh","2(f)"
"13","State","Andhra Pradesh Fisheries University","Vihsal Residency, Padmaja Nagar, Tadigadapa, Vijawada","521134","Andhra Pradesh","2(f)"
"14","State","Andhra University","Waltair Junction,Visakhapatnam,","530003","Andhra Pradesh","2(f) & 12(B)"
"15","State","Anna University","Sardar Patel Road, Guindy, ChennaiGuindyChennai","600025","Tamil Nadu","2(f) & 12(B)"
"16","State","Annamalai University","Annamalainagar,Cuddalore","608002","Tamil Nadu","2(f) & 12(B)"
"17","State","Arunachal Pradesh University","Pasighat","791102","Arunachal Pradesh","2(f)"
"18","State","Aryabhatta Knowledge University","Chanakya National Law University Campus, Mithapur, Patna","800001","Bihar","2(f)"
"19","State","Assam Agricultural University","Nowchaliah Gaon,Jorhat","785013","Assam","2(f) & 12(B)"
"20","State","Assam Rajiv Gandhi University of Co-operative Management","Basic tiniali, gadaghar nagar,Joysagar, Dicial Dhulia Gaon,Sivasagar, Guwahati","785665","Assam","2(f)"
"21","State","Assam Science & Technology University","Tetelia Road, jalukbari, Guwahati","781013","Assam","2(f)"
"22","State","Assam Skill University","Mangaldoi, Dist. Darrang","784125","Assam","2(f)"
"23","State","Assam Women's University","Jamuguri, Rowriah, Jorhat","785004","Assam","2(f)"
"24","State","Atal Bihari Bajpayee Vishwavidyalaya (Formerly Bilaspur Vishwavidyalaya)","In front of Koni Police StationBilaspur- Ratanpur Road, Koni, Bilaspur(CG)","495009","Chhattisgarh","2(f) & 12(B)"
"25","State","Atal Bihari Vajpayee Hindi Vishwavidyalaya","Mungalia Kot,Rajharsh Colony, Kolar MargBhopal","462038","Madhya Pradesh","2(f)"
"26","State","Atal Bihari Vajpayee Medical University","9th Floor, Academic Block, Dr. Ram Manohar Lohia Institute of Medical Sciences, Vibhuti Khand, Lucknow","226210","Uttar Pradesh","2(f)"
"27","State","Atal Medical and Research University(Formerly Himachal Pradesh University of Health Sciences)","SLBS Medical College & Hospital CampusNer Chowk, Distt- Mandi,Mandi","175008","Himachal Pradesh","2(f)"
"28","State","Awadesh Pratap Singh University","Sirmour Road,Ananthpur,Rewa","486003","Madhya Pradesh","2(f) & 12(B)"
"29","State","Ayush and Health Sciences University of Chhattisgarh","Uparwara, Atal Nagar, Sector 40, Nava Raipur C.G.Raipur,","493661","Chhattisgarh","2(f)"
"30","State","Baba Amte Divyang University","3rd Floor, Rajiv Gandhi Bhawan, Shiksha Sankul, J.L.N. Marg, Jaipur","303017","Rajasthan","2(f)"
"31","State","Baba Farid University of Health Sciences","Sadiq Road, Faridkot","151203","Punjab","2(f) & 12(B)"
"32","State","Baba Ghulam Shah Badshah University","Baba Ghulam Shah Badshah University, Rajouri, J&K - 185234Road,Chinnai Himmat, Jammu","185234","Jammu and Kashmir","2(f) & 12(B)"
"33","State","Babasaheb Bhimrao Ambedkar Bihar University","Kalambagh Rd, Musahri, Muzaffarpur","842001","Bihar","2(f) & 12(B)"
"34","State","Bagalkot University","Mudhol Road, Jamkhandi","587301","Karnataka","2(f)"
"35","State","Banda University of Agriculture & Technology","Near New Circuit House,Banda","210001","Uttar Pradesh","2(f)"
"36","State","Bangalore University","Jnana Bharathi, Bangalore","560056","Karnataka","2(f) & 12(B)"
"37","State","Bankura University","Main Campus, Bankura Block-II, P.O.-PurandarpurPO Bhagabandh,Dist. Bankura","722155","West Bengal","2(f) & 12(B)"
"38","State","Barkatullaah University","Hoshangabad Road, Bhopal","462026","Madhya Pradesh","2(f) & 12(B)"
"39","State","Bengaluru City University","Rukmini Knowledge Park, kattigenahalli, Bengaluru","560064","Karnataka","2(f)"
"40","State","Bengaluru Dr. B. R. Ambedkar School of Economics University","JNANABHARTI MAIN ROAD, NAGARABHAVI BENGALURUNagarabhavi P.O, Bengaluru","560072","Karnataka","2(f)"
"41","State","Bengaluru North University","Devaraj Urs Extension, Tamaka Kolar, Karnataka","563103","Karnataka","2(f)"
"42","State","Berhampur University","Berhampur, Bhanja Bihar, Dt. Ganjam","760007","Odisha","2(f) & 12(B)"
"43","State","Bhagat Phool Singh Mahila Vishwavidyalaya","B.P.S. Mahila Vishwavidyalaya, Khanpur Kalan, Sonipat SonipatSonipat, Haryana","131305","Haryana","2(f) & 12(B)"
"44","State","Bhakta Kavi Narsinh Mehta University","Govt. Polytechnic College, Bilkha Road, Khadiya, Junagadh","362640","Gujarat","2(f)"
"45","State","Bharathiar University","Bharathiar University, Marudhamalai Main Road, Coimbatore-641046PIN - 641 046.Tamil Nadu","641046","Tamil Nadu","2(f) & 12(B)"
"46","State","Bharathidasan University","Palkalaiperur,Tiruchirappalli","620024","Tamil Nadu","2(f) & 12(B)"
"47","State","Bhatkhande Sanskriti Vishwavidyalaya","Near, 1, Parivartan Chowk, Qaisar Bagh, Lucknow","226001","Uttar Pradesh","2(f)"
"48","State","Bhattadev University","Pathsala,Barpeta","781325","Assam","2(f)"
"49","State","Bhupendra Narayan Mandal University","Singheshwar Road, NH 106, Madhepura","852113","Bihar","2(f) & 12(B)"
"50","State","Bidar University","Gnyana Karanji, Halhalli","585415","Karnataka","2(f)"
"51","State","Bidhan Chandra Krishi Vishwavidyalaya","Mohanpur, Nadia, West BengalDistt. Nadia 741 252 (WB)","741252","West Bengal","2(f) & 12(B)"
"52","State","Bihar Agricultural University","Sabour (BhagalPur)","813210","Bihar","2(f)"
"53","State","Bihar Animal Sciences University","Bihar Veterinary College Campus, Patna","800014","Bihar","2(f)"
"54","State","Bihar Engineering University","6th Floor, Examination Block, AKU Campus, Mithapur, Patna","800001","Bihar","2(f)"
"55","State","Bihar University of Health Sciences","Mithapur, Patna","800001","Bihar","2(f)"
"56","State","Biju Patnaik University of Technology","Chhend Colony, Rourkela","769015","Odisha","2(f)"
"57","State","Bikaner Technical University","RIICO Karni Industrial Area, Pugal Road, Bikaner","334004","Rajasthan","2(f)"
"58","State","Binod Bihari Mahto Koyalanchal University","Govt. Polytechnic RoadDhanbad","828130","Jharkhand","2(f)"
"59","State","Birangana Sati Sadhani Rajyik Vishwavidyalaya","Golghat","785621","Assam","2(f)"
"60","State","Birsa Agricultural University","Kanke Patratu Rd,Ranchi","834006","Jharkhand","2(f) & 12(B)"
"61","State","Birsa Munda Tribal University","Vocational Training Centre (VTC), Vavdi Road,  Distt.- Narmada","393145","Gujarat","2(f)"
"62","State","Biswa Bangla Biswabidyalay","Bolpur,Shantiniketan,Birbhum","731204","West Bengal","2(f)"
"63","State","Bodoland University","Debargaon, P.O. Rangalikhata,Kokrajhar","783370","Assam","2(f) & 12(B)"
"64","State","Bundelkhand University","Kanpur Road, Jhansi","284128","Uttar Pradesh","2(f) & 12(B)"
"65","State","Burdwan University","Burdwan Rajbati, Raiganj,Bardhaman","713104","West Bengal","2(f) & 12(B)"
"66","State","Calcutta University","Calcutta University, College Square,Kolkata","700073","West Bengal","2(f) & 12(B)"
"67","State","Calicut University","Calicut University P.O.Malappuram DistrictCalicut","673635","Kerala","2(f) & 12(B)"
"68","State","Chamarajanagara University","Chamarajanagara","571313","Karnataka","2(f)"
"69","State","Chanakya National Law University","Mithapur, Nyaya Nagar, Patna","800001","Bihar","2(f) & 12(B)"
"70","State","Chandra Shekhar Azad University of Agriculture & Technology","Agricultural College Lane,Nawabganj,Kanpur","208002","Uttar Pradesh","2(f) & 12(B)"
"71","State","Chaudhary Bansi Lal University","Hansi Road,  Bhiwani","127021","Haryana","2(f) & 12(B)"
"72","State","Chaudhary Charan Singh University","Ramgarhi,Meerut","200005","Uttar Pradesh","2(f) & 12(B)"
"73","State","Chaudhary Devi Lal University","Barnala Road, Near Mini Sectt. SirsaHaryana -125 055","125055","Haryana","2(f) & 12(B)"
"74","State","Chaudhary Ranbir Singh University","Chaudhary Ranbir Singh University, Rohtak Road, Jind","126102","Haryana","2(f) & 12(B)"
"75","State","Chaudhary Sarwan Kumar Himachal Pradesh Krishi Vishvavidyalaya","District Kangra Himachal PradeshTehsil, Palampur,Dist.-Kangra","176062","Himachal Pradesh","2(f) & 12(B)"
"76","State","Chhatrapati Shahu Ji Maharaj University","Kalyanpur, Kanpur","208024","Uttar Pradesh","2(f) & 12(B)"
"77","State","Chhattisgarh Kamdhenu Vishwavidyalaya","Dau Shri Vasudev Chandrakar Kamdhenu Vishwavidyala, Anjora, Durg","491001","Chhattisgarh","2(f)"
"78","State","Chhattisgarh Swami Vivekanad Technical Universty","North Park Avenue , Sector-8Bhilai, DurgChatisgarh","490009","Chhattisgarh","2(f) & 12(B)"
"79","State","Children's University","Subhash Chandra Bose Shikshan Sankul Sector 20 Gandhinagar Sector-20, Gandhinagar","382021","Gujarat","2(f)"
"80","State","Choudhary Charan Singh Haryana Agricultural Univeersity","Directorate of Human resource Management","125004","Haryana","2(f) & 12(B)"
"81","State","Cluster University","Silver Jubilee Government College Campus, Kurnool","518007","Andhra Pradesh","2(f)"
"82","State","Cluster University of Jammu","Adjoining G.G.M. Science College,Canal Road,Jammu","180016","Jammu and Kashmir","2(f)"
"83","State","Cluster University of Srinagar","Gogji-Bagh,Srinagar","190008","Jammu and Kashmir","2(f)"
"84","State","Cochin Unviersity of Science & Technology","Cochin University of Science and technology, Kochi, Ernakulam, Kerala State","682022","Kerala","2(f) & 12(B)"
"85","State","COEP Technological University","Wellesley Road,Shivajinagar,Pune","411005","Maharashtra","2(f)"
"86","State","Cooch Behar Panchanan Barma University","COOCH BEHAR PANCHANAN BARMA UNIVERSITY, Panchanan Nagar, Vivekananda Street, Cooch Behar - 736101, West Bengal, IndiaCooch Behar","736101","West Bengal","2(f)"
"87","State","Cotton University","PANBAZAR,Guwahati","781001","Assam","2(f) & 12(B)"
"88","State","Dada Lakhmi Chand State University of Performing and Visual Arts (SUPVA)","Sector-6, Near Rajiv Gandhi Stadium, Rohtak","124001","Haryana","2(f)"
"89","State","Dakshin Dinajpur University","North Chakbhabani (near LIC office)Balurghat, Dakshin Dinajpur","733101","West Bengal","2(f)"
"90","State","Damodaram Sanjivayya National Law University","Sabbavaram, Pedawaltair, Visakhapatnam","531035","Andhra Pradesh","2(f) & 12(B)"
"91","State","Darjeeling Hills University","Jogighat MangpuDist.- Darjeeling,","734313","West Bengal","2(f)"
"92","State","Davangere University","Davangere University, Shivagangotri, DavangereDavangere Karnataka-577002","577007","Karnataka","2(f) & 12(B)"
"93","State","Deen Bandhu Chhotu Ram University of Sciences & Technology","50th K.M. Stone, N.H. 1, Murthal (Sonepat) Haryana, India","131039","Haryana","2(f) & 12(B)"
"94","State","Deen Dayal Upadhyay Gorakhpur University","Civil Lines, GorakhpurPIN - 273 009. (U.P.)","273009","Uttar Pradesh","2(f) & 12(B)"
"95","State","Delhi Pharmaceutical Sciences & Research University","M.B. Road, Sector - III, Pushp Vihar","110017","Delhi","2(f)"
"96","State","Delhi Skill and Entrepreneurship University","Integrated Institute of Technology Complex, Sector-9, Dwarka","110007","Delhi","2(f)"
"97","State","Delhi Sports University","Ludlow Castle Sports ComplexShamnath MargDelhi","110054","Delhi","2(f)"
"98","State","Delhi Teachers University","P 625 & 745, Outram Lane, New Delhi","110009","Delhi","2(f)"
"99","State","Delhi Technological University","Shahbad Daultapur, Bawana Road, Rohini","110042","Delhi","2(f) & 12(B)"
"100","State","Devi Ahilya Vishwavidyalaya","R.N.Tagore Marg,Indore","452 001","Madhya Pradesh","2(f) & 12(B)"
"101","State","Dhanamanjuri University","Imphal, Manipur","795001","Manipur","2(f)"
"102","State","Dharmashastra National Law University","BRBRAITT Campus South Civil Lines ,Ridge Road Jabalpur Ridge Road,Civil Lines, Jabalpur","482001","Madhya Pradesh","2(f)"
"103","State","Dharmsinh Desai University","P.Box No. 35 College Road, Nadiad","387001","Gujarat","2(f) & 12(B)"
"104","State","Diamond Harbour Women's University","Sarisha, Diamond Harbour Road, South 24 Parganas, West BengalDiamond Harbour Road, District: South 24 paraganas,","743368","West Bengal","2(f) & 12(B)"
"105","State","Dibrugarh University","Rajabheta,Dibrugarh","786004","Assam","2(f) & 12(B)"
"106","State","Doon University","Campus Office388/2, Indira NagarDehradun","","Uttarakhand","2(f) & 12(B)"
"107","State","Dr Y. S. R. Architecture & Fine Arts University","Chinnamachupalli, Chenur, Rayalapanthulapalle","516162","Andhra Pradesh","2(f)"
"108","State","Dr. A.P.J. Abdul Kalam Technical University","Jankipuram ExtensionJankipuram Extension Yojna,Lucknow","226031","Uttar Pradesh","2(f) & 12(B)"
"109","State","Dr. Abdul Haq Urdu University","Pandipadu Village, Gooty Rd, Kurnool","518002","Andhra Pradesh","2(f)"
"110","State","Dr. B. R. Ambedkar University","Ambedkar University Road,Etcherla,Dist. Srikakulam","532410","Andhra Pradesh","2(f) & 12(B)"
"111","State","Dr. B. R. Ambedkar University of Social Sciences","Dr. Ambedkar Nagar, Mhow-453441Dist-Indore, MP","453441","Madhya Pradesh","2(f) & 12(B)"
"112","State","Dr. B.R. Ambedkar National Law University","Dr. B.R. Ambedkar National Law University, Plot No. 5, Rajiv Gandhi Education City (RGEC), National Capital Region, P.O. Rai, Sonipat, HaryanaSonipat,","131029","Haryana","2(f)"
"113","State","Dr. B.R. Ambedkar University","Lothian Road, Kashmere Gate","110006","Delhi","2(f) & 12(B)"
"114","State","Dr. B.R. Ambedkar University","Paliwal Park,Agra","282 004","Uttar Pradesh","2(f) & 12(B)"
"115","State","Dr. B.R.Ambedkar Open University","Prof. G. Ram Reddy Marg, Road No. 46, Jubilee Hills, HyderabadHyderabad - 500 033.","500033","Telangana","2(f) & 12(B)"
"116","State","Dr. Babasaheb Ambedkar Marathwada University","University Campus, Near Soneri Mahal, Jaisingpura, Aurangabad","431004","Maharashtra","2(f) & 12(B)"
"117","State","Dr. Babasaheb Ambedkar Open University","Jyotirmay' Parisar, Dr Babasaheb Ambedkar Open University Marg,Sarkhej Gandhinagar Highway, Chharodi, Ahmedabad","382481","Gujarat","2(f) & 12(B)"
"118","State","Dr. Babasaheb AmbedkarTechnological University","Dr. Babasaheb Ambedkar Technological University LonereVidyavihar, A/P Lonere, Tal. Mangaon, Dist. Raigad, Maharashtra, 402013Lonere-402103, Dt-Raigad.","402103","Maharashtra","2(f) & 12(B)"
"119","State","Dr. Bhimrao Ambedkar Law University","J.L.N Marg, Jaipur","302015","Rajasthan","2(f)"
"120","State","Dr. Homi Bhabha State University","15, Madam Cams Road, Fort, Mumbai15 Madame Cama Road,Mumbai","400032","Maharashtra","2(f)"
"121","State","Dr. N.T.R. University of Health Sciences","near Ramavarappadu,Vijayawada","520008","Andhra Pradesh","2(f)"
"122","State","Dr. Punjabrao Deshmukh Krishi Vidyapeeth","Krishi Nagar Post Office, AKOLA, MaharashtraAkola - 444 104.","444104","Maharashtra","2(f) & 12(B)"
"123","State","Dr. Rajendra Prasad National Law University","Gaddopur, Phaphamau, Prayagraj","211013","Uttar Pradesh","2(f)"
"124","State","Dr. Ram Manohar Lohia Awadh University","Allahabad Road Faizabad, Ayodhya","224001","Uttar Pradesh","2(f) & 12(B)"
"125","State","Dr. Ram Manohar Lohia Institute of Medical Sciences","Vibhuti Khand,Gomti Nagar,Lucknow","226010","Uttar Pradesh","2(f)"
"126","State","Dr. Ram Manohar Lohiya National Law University","L.D.A.,Kanpur Road scheme,LucknowLucknow, U.P.","226012","Uttar Pradesh","2(f) & 12(B)"
"127","State","Dr. Shakuntala Misra National Rehabilitation University","5th Floor,Administrative BuildingMohaan Road, Lucknow","226017","Uttar Pradesh","2(f) & 12(B)"
"128","State","Dr. Shyama Prasad Mukherjee University","P.O. - Ranchi University MorabadiRanchi","834008","Jharkhand","2(f) & 12(B)"
"129","State","Dr. Y.S.Parmar University of Horticulture & Forestry","Nauni Solan (HP)","173230","Himachal Pradesh","2(f) & 12(B)"
"130","State","Dr. Y.S.R. Horticultural University","Venkataramannagudem, West Godavari District","534101","Andhra Pradesh","2(f)"
"131","State","Dravidian University","Srinivasavanam, Kuppam,Dist : Chitoor","517426","Andhra Pradesh","2(f) & 12(B)"
"132","State","Fakir Mohan University","Vyas Vihar, Nuapadhi, Balasore","756020","Odisha","2(f) & 12(B)"
"133","State","G.B.Pant University of Agriculture & Technology","PantnagarUdham Singh Nagar-263 145Uttarakhand","263145","Uttarakhand","2(f) & 12(B)"
"134","State","Gangadhar Meher University","Amruta Vihar, Sambalpur","768004","Odisha","2(f) & 12(B)"
"135","State","Gauhati University","Gopinath Bordoloi Nagar,Guwahati -781014  KAMRUP , AssamGuwahati","781014","Assam","2(f) & 12(B)"
"136","State","Gautam Buddha University","Greater Noida, Dist: Gautam Budh -Nagar,","201 308","Uttar Pradesh","2(f) & 12(B)"
"137","State","Goa University","Taleigao Plateau","403206","Goa","2(f) & 12(B)"
"138","State","Gondwana University","M.I.D.C. Road ComplexGodchiroli, Maharashtra","422 605","Maharashtra","2(f) & 12(B)"
"139","State","Govind Guru Tribal University","Collector choraha, Subhash Nagar, Banswara","327001","Rajasthan","2(f)"
"140","State","Gujarat Ayurveda University","Gujarat Ayurved University, Opp. B Division Police Station, Guru Dwara Road, Jamnagar-361008Jamnagar-361 008","361008","Gujarat","2(f) & 12(B)"
"141","State","Gujarat Biotechnology University","C/o Gujarat State Biotechnology Mission,Block 11, 9th Floor, Udyog Bhawan,Gandhinagar","382011","Gujarat","2(f)"
"142","State","Gujarat National Law University","ATTALIKA AVENUE, KNOWLEDGE CORRIDOR, KOBA, SUB P.O. KOBA, GANDHINAGAR, GUJARATKoba (Sub P.O)Gandhinagar,","382426","Gujarat","2(f) & 12(B)"
"143","State","Gujarat Natural Farming and Organic Agricultural University","ATIC Building, Borsad Chokdi,Anad,","388001","Gujarat","2(f)"
"144","State","Gujarat Technological University","Nr.Vishwakarma Government Engineering College Nr.Visat Three Roads, Visat - Gandhinagar Highway Chandkheda, Ahmedabad Nr.Visat Three Roads, Visat - Gandhinagar HighwayChandkheda, Ahmedabad","382424","Gujarat","2(f) & 12(B)"
"145","State","Gujarat University","P.B.No.4010, Navrangpura,Ahmedabad","380 009","Gujarat","2(f) & 12(B)"
"146","State","Gujarat University of Transplantation Sciences","IKDRC-ITS Premises, Civil Hospital - Medicity Campus, Asarwa, Ahmedabad – 380 016, Gujarat, India. Civil Hospital Campus,Asarwa, Ahmedabad","380016","Gujarat","2(f)"
"147","State","Gulbarga University","GULBARGA UNIVERSITY, KALBURGI, KARNATKAPIN - 585 106, KARNATAKA","585106","Karnataka","2(f) & 12(B)"
"148","State","Guru Angad Dev Veterinary & Animal Sciences University","Ferozepur Road, Ludhiana","141004","Punjab","2(f) & 12(B)"
"149","State","Guru Gobind Singh Indraprastha Vishwavidyalaya","Sector-16C, Dwarka,  New Delhi","110078","Delhi","2(f) & 12(B)"
"150","State","Guru Jambeshwar University of Science and Technology","Guru Jambheshwar University of Science & Technology  Hisar - Haryana","125001","Haryana","2(f)"
"151","State","Guru Nanak Dev University","G.T Road Amritsar, Amritsar","143005","Punjab","2(f) & 12(B)"
"152","State","Guru Ravidas Ayurved University","Una Rd, Hoshiarpur","146001","Punjab","2(f)"
"153","State","Gurugram University","Gurugram University, Sec-51, Mayfield Garden, Gurugram Haryana Gurugram, Haryana Sector-51,Gurugram","122018","Haryana","2(f)"
"154","State","Harcourt Butler Technical University","Kanpur","208002","Uttar Pradesh","2(f)"
"155","State","Harichand Guruchand University","North 24 parganas","743245","West Bengal","2(f)"
"156","State","Haridev Joshi University of Journalism and Mass Communication","II Floor, Rajiv Gandhi Vidya Bhavan, Shiksha Sankul, JLN Marg, Jaipur","302015","Rajasthan","2(f)"
"157","State","Hassan University","Hemagangothri, Hassan","573226","Karnataka","2(f)"
"158","State","Haveri University","Kerimattihalli, Haveri","581110","Karnataka","2(f)"
"159","State","Hemchand Yadav Vishwavidyalaya(Earlier known as Durg Vishwavidyalaya)","Raipur Naka,Durg","491001","Chhattisgarh","2(f)"
"160","State","Hemchandracharya North Gujarat University","Hemchandracharya North Gujarat University, Patan Patan- 384 265. (GUJARAT)","384265","Gujarat","2(f) & 12(B)"
"161","State","Hemvati Nandan Bahuguna Medical Education University","124, Ganga ViharOpposite Roadways WorkshopHaridwar Road, Dehradun","248 001","Uttarakhand","2(f)"
"162","State","Hidayatullah National Law University","Nava Raipur Atal Nagar, RaipurChattisgarh-493661","492002","Chhattisgarh","2(f) & 12(B)"
"163","State","Himachal Pradesh National Law University","Himachal Pradesh National Law University, Ghandal. Sub Tehsil Dhami, Shimla, Himachal Pradesh-171014Sub-Tehsil Dhami,Shimla","171014","Himachal Pradesh","2(f)"
"164","State","Himachal Pradesh Technical University","Government Polytechnic,Baru,Hamirpur","","Himachal Pradesh","2(f)"
"165","State","Himachal Pradesh University","Summer HillsShimla - 171 005. (HP)","","Himachal Pradesh","2(f) & 12(B)"
"166","State","Hindi University","Howrah","","West Bengal","2(f)"
"167","State","Hyderabad (SIND) National Collegiate University","D. M. Harish Building, 47, Dr R G Thadani Marg,  Worli","400018","Maharashtra","2(f)"
"168","State","I.K. Gujaral Punjab Technical University","Jalandhar - Kapurthala Highway, VPO - Ibban, Kapurthala","144603","Punjab","2(f)"
"169","State","Indian Institute of Teacher Education","Ramkrishna Paramhans Vidya Sankul, Kh Road, Sector 15, Gandhinagar, Gujarat Nr. Mahatma Mandir, G-4, Sector-15Gandhinagar","382016","Gujarat","2(f)"
"170","State","Indira Gandhi Delhi Technical University for Women","Kashmere Gate","110006","Delhi","2(f)"
"171","State","Indira Gandhi Krishi Vishwavidyalaya","Krishak NagarRaipur - 492 012.(Chattisgarh)","","Chhattisgarh","2(f) & 12(B)"
"172","State","Indira Gandhi University","Meerpur,Rewari","","Haryana","2(f) & 12(B)"
"173","State","Indira Kala Sangeet Vishwavidyalaya","Khairagarh","491881","Chhattisgarh","2(f) & 12(B)"
"174","State","Indraprastha Institute of Information Technology","Near Govindpuri Metro Station, Okhala Industrial Estate Phase-III, New Delhi","110020","Delhi","2(f) & 12(B)"
"175","State","Institute of Infrastructure Technology Research and Management","Near Khokhra Circle, Maninagar (East), Ahmedabad-380 026, Gujarat, IndiaManinagar (East), Ahmedabad, Gujarat","380026","Gujarat","2(f)"
"176","State","International Institute of Information Technology","Plot No.-7, Sector 24,Near Purkhoti, Muktangan,Naya Raipur","493661","Chhattisgarh","2(f)"
"177","State","International Institute of Information Technology (IIIT)","Gothapatana, P.O-Malipada, Bhubaneswar","751029","Odisha","2(f)"
"178","State","International Sports University, Maharashtra","Sports & Youth ServicesShivchhatrapati Sports ComplexMahalunge-Belawadi, Pune","411045","Maharashtra","2(f)"
"179","State","Islamic University of Sciences & Technology University","1, University Avenue,Awantipora,Pulwama","192 122","Jammu and Kashmir","2(f) & 12(B)"
"180","State","J. C. Bose University of Science & Technology, YMCA","FaridabadSector-6","121006","Haryana","2(f) & 12(B)"
"181","State","Jadavpur University","188, Raja S. C. Mallik Road, Jadavpur, KolkataKolkatta,PIN - 700 032.","700032","West Bengal","2(f) & 12(B)"
"182","State","Jagadguru Ramanandacharya Sanskrit University","Bhankrota - Muhana Link Road, Madau, JaipurJaipur-302026","302026","Rajasthan","2(f) & 12(B)"
"183","State","Jagadguru Rambhadracharya Divyang State University","Chitrakoot","210204","Uttar Pradesh","2(f) & 12(B)"
"184","State","Jagat Guru Nanak Dev Punjab State Open University","C/28 Lower Mall, Patiala","147001","Punjab","2(f)"
"185","State","Jai Narain Vyas University","Residency Road, Jodhpur (Rajasthan)PIN - 342 001.(RAJASTHAN","342011","Rajasthan","2(f) & 12(B)"
"186","State","Jai Prakash University","Rahul Sankrityayan Nagar, Chapra","841302","Bihar","2(f) & 12(B)"
"187","State","Jammu University","Baba Saheb Ambedkar Road Jammu Tawi (J&K)Jammu Tawi - 180 004.","180006","Jammu and Kashmir","2(f) & 12(B)"
"188","State","Jamshedpur Women's University","Jamshedpur,Jharkhand","831001","Jharkhand","2(f)"
"189","State","Jananayak Chandrashekhar University","Ballia","277001","Uttar Pradesh","2(f)"
"190","State","Jawaharlal Nehru Architecture and Fine Arts University","Masab Tank, HyderabadMasab Tank,Hyderabad","500028","Telangana","2(f) & 12(B)"
"191","State","Jawaharlal Nehru Krishi Vishwavidyalaya","KrishinagarJabalpur-482 004.","","Madhya Pradesh","2(f) & 12(B)"
"192","State","Jawaharlal Nehru Technological University","KukatpallyHyderabad - 500 085.Andhra Pradesh","","Telangana","2(f) & 12(B)"
"193","State","Jawaharlal Nehru Technological University","Gurajada, Vizianagram, Dwarapudi","535003","Andhra Pradesh","2(f)"
"194","State","Jawaharlal Nehru Technological University (Anantapur)","JNTU Anantapur, Ananthapuramu, Andhra PradeshAndhra Pradesh -515002","515002","Andhra Pradesh","2(f) & 12(B)"
"195","State","Jawaharlal Nehru Technological University (Kainada)","Pitapuram Road, JNTU Kakinada, Kainada, Dist. East Godavari","533003","Andhra Pradesh","2(f) & 12(B)"
"196","State","Jharkhand Raksha Shakti University","Old Judicial Academy(Shri Krishna Lok Prashashan Sansthan Parisar)Mayors Road, Ranchi","834002","Jharkhand","2(f)"
"197","State","Jharkhand State Open University","Kanke, Ranchi","834006","Jharkhand","2(f)"
"198","State","Jharkhand University of Technology","Science & Technology Campus,Sirkha Toll, Namkum,Ranchi","834010","Jharkhand","2(f)"
"199","State","Jiwaji University","GwaliorPIN - 474 001. (MP)","","Madhya Pradesh","2(f) & 12(B)"
"200","State","Junagarh Agricultural University","Junagarh","362 001","Gujarat","2(f)"
"201","State","Kakatiya University","Kakatiya University,Warangal, Vidyaranyapuri,PIN - 506 009.","","Telangana","2(f) & 12(B)"
"202","State","Kalahandi University","Manikya Vihar, Bhawanipatna, Dist.-Kalahandi","766001","Odisha","2(f)"
"203","State","Kaloji Narayana Rao University of Health Sciences","Kakatiya Medical College Campus, Rangampet, Warangal (U)","506007","Telangana","2(f)"
"204","State","Kalyani University","Kalyani","","West Bengal","2(f) & 12(B)"
"205","State","Kamdhenu University","B-1 Wing, 4th Floor, Karmayogi Bhavan, Sector 10A Gandhinagar GujaratSector 10 A, Block B,Podium Level, Gandhinagar","382410","Gujarat","2(f)"
"206","State","Kameshwar Singh Darbhanga Sanskrit Vishwavidyalaya","Kameshwar Nagar, Darbhanga","846008","Bihar","2(f) & 12(B)"
"207","State","Kannada University","Vidyaranya, Hosapete Taluk, Bellary Dist., KARNATAKAHampi (Dt. Bellary) 583276","583276","Karnataka","2(f) & 12(B)"
"208","State","Kannur University","MangattuparambaDistt- Kannur","670 567","Kerala","2(f) & 12(B)"
"209","State","Kanyashree University","Krishnanagar,Nadia","","West Bengal","2(f)"
"210","State","Karmaveer Bhaurao Patil University","Powai Naka, Satara","415001","Maharashtra","2(f)"
"211","State","Karnatak  University","Karnatak University,Pavate Nagar, Dharwad","580003","Karnataka","2(f) & 12(B)"
"212","State","Karnataka  State Law University","Navanagar, Hubli-580025Karnataka","","Karnataka","2(f) & 12(B)"
"213","State","Karnataka  State Open University","ManasangangotriMysore-570006","","Karnataka","2(f) & 12(B)"
"214","State","Karnataka Folklore University","Gotagodi, Shiggavi Taluk, Haveri District - 581 205Vijayanagar, Banglore","581205","Karnataka","2(f)"
"215","State","Karnataka Janapada Vishwavidyalaya","Gatagodi, NH-4, TalukShiggaon, Dist-Haveri,","581197","Karnataka","2(f)"
"216","State","Karnataka Samskrit University","Sri Chamarajendra Sanskrit College campus,Pampa Mahakavi Road,ChamarajpetBangalore","580018","Karnataka","2(f) & 12(B)"
"217","State","Karnataka State Akkamahadevi Women University (Formerly ""Karnataka State Women's University)","Jnanashakthi Campus, Athani Road, Toravi, Vijayapura,","586108","Karnataka","2(f) & 12(B)"
"218","State","Karnataka State Rural Development and Panchayat Raj University","Raitha Bhavana, General Cariappa Circle, Gadag, Karnataka- 582101Regional Office:- Grameenabhivruddhi Bhavan, Ananda Rao Circle,Bengaluru-560009","582101","Karnataka","2(f)"
"219","State","Karnataka Veterinary, Animal & Fisheries Science University","NandinagarPB No.6,Bidar-585401(Karnataka","585226","Karnataka","2(f)"
"220","State","Kashmir University","Hazratbal, SrinagarPIN - 190 006. (J & K)","190006","Jammu and Kashmir","2(f) & 12(B)"
"221","State","Kavayitri Bahinabai Chadhari North Maharashtra University","UmavinagarP.B.No.80, Jalgaon","425001","Maharashtra","2(f) & 12(B)"
"222","State","Kavi Kulguru Kalidas Sanskrit Vishwavidyalaya","Administration Building, Mouda Road, Ramtek, Dist. Nagpur Ramtek-441106,Dist. NagpurMaharashtra","441106","Maharashtra","2(f) & 12(B)"
"223","State","Kazi Nazrul University","Nazrul Road, Kalla Bypass MorePO – Kalla, C. H., P. s. Asansol (North)Dist. Paschim Bardhman","713 304","West Bengal","2(f) & 12(B)"
"224","State","Keladi Shivappa Nayaka University of Agriculture and Horticultural Sciences","Shivamogga, Iruvakki, Sagara Taluk, Shivamogga District","577412","Karnataka","2(f)"
"225","State","Kerala Agricultural Unviersity","Kerala Agricultural University KAU Main Campus KAU P.O., Vellanikkara, Thrissur, Kerala, 680656Thrissur - 680 654.","680656","Kerala","2(f) & 12(B)"
"226","State","Kerala University","Thiruvananthapuram - 695 0","","Kerala","2(f) & 12(B)"
"227","State","Kerala University of Digital Sciences Innovation and Technology","Technology CampusKuracode, MangalapurammThonnakkal P.O., Thiruvananthapuram","695317","Kerala","2(f)"
"228","State","Kerala University of Fisheries & Ocean Studies","Panangad P.O, Kochi Kochi","682506","Kerala","2(f) & 12(B)"
"229","State","Kerala University of Health Sciences","Trissur","680596","Kerala","2(f)"
"230","State","Kerala Veterinary & Animal Sciences University","Kerala Veterinary and Animal Sciences University, Pookode, Wayanad, KeralaWayanad","673576","Kerala","2(f)"
"231","State","Khallikote Unitary University","Sundar Nagar, Ganjam, Berhampur","760001","Odisha","2(f)"
"232","State","Khangchendzonga State University (Formerly Sikkim State University)","Nar Bahadur Bhandari Government College Complex, PO Tadong, Gangtok, East Sikkim","737102","Sikkim","2(f)"
"233","State","Khwaja Moinuddin Chishti Language University","Sitapur - Hardoi Bypass Road,Near I.I.M.Lucknow","226013","Uttar Pradesh","2(f) & 12(B)"
"234","State","King Georges Medical University","King George Medical University, Shahmeena Road Chowk, Lucknow,","226003","Uttar Pradesh","2(f) & 12(B)"
"235","State","Kodagu University","Chikka Aluvara, Kushalnagar","571232","Karnataka","2(f)"
"236","State","Kolhan University","NH-75, WEST SINGHBHUM, JHARKHANDWest Singhbhum, Jharkhand","833202","Jharkhand","2(f)"
"237","State","Konkan Krishi Vidyapeeth","Dapoli, Tal: Dapoli, Dist. RatnagiriDistrict Ratnagiri","415712","Maharashtra","2(f) & 12(B)"
"238","State","Koppal University","Government Engineering College, Talakala, Dist. Koppal","583231","Karnataka","2(f)"
"239","State","Krantiguru Shyamji Krishna Verma Kachchh University","Mundra road bhuj kachchhBhuj-Kachchh, Gujarat","370001","Gujarat","2(f) & 12(B)"
"240","State","Krishna Kanta Handiqui State Open University","Resham Nagar,Khanapara, Kamrup(M),Guwahati","781022","Assam","2(f)"
"241","State","Krishna University","Andhra JateeyaKalasala, Campus, RajupetaMachllipatanam","521001","Andhra Pradesh","2(f)"
"242","State","KSGH Music and Performing Arts University","Jlb road, Ashoka Circle, Lakshmipura, Mysuru-04Near Ashoka CircleLadshmipuram, Mysore","570004","Karnataka","2(f)"
"243","State","Kumar Bhaskar Varma Sanskrit & Ancient Studies University","NAMATI, HATI NAMATI, NALBARI, ASSAM-781337, INDIAP.O.- Hati NamatiDist-Nalbari,Assam","781337","Assam","2(f) & 12(B)"
"244","State","Kumaun University","Sleepy Hallow,Mallital,Nainital","263001","Uttarakhand","2(f) & 12(B)"
"245","State","Kurukshetra University","KurukshetraPIN - 136 119  (HARYANA)","136119","Haryana","2(f) & 12(B)"
"246","State","Kushabhau Thakre Patrakarita Avam Jansanchar Vishwavidyalaya","At: Kathadih, Po: Sunder Nagar, Raipur","492013","Chhattisgarh","2(f)"
"247","State","Kuvempu University","Jnanasahyadri, Shankaraghatta, Shivamogga, KarnatakaPIN -577 451. KARNATAKA.","577451","Karnataka","2(f) & 12(B)"
"248","State","Lala Lajpat Rai University of Veterinary & Animal Sciences","CCSHAU Campus","125004","Haryana","2(f) & 12(B)"
"249","State","Lalit Narayan Mithila University","Darbhanga","846008","Bihar","2(f) & 12(B)"
"250","State","Laxminarayan Innovation Technological (LIT) University","LITU Campus, Amaravati Road, Nagpur","440033","Maharashtra","2(f)"
"251","State","M.B.M. University","Ratanada, Jodhpur","342011","Rajasthan","2(f)"
"252","State","M.P.Bhoj (open) University","Kolar Road BhopalKolar Road,Bhopal","462016","Madhya Pradesh","2(f) & 12(B)"
"253","State","Maa Shakumbhari University","Saharanpur, PunwarkaSaharanpur","247120","Uttar Pradesh","2(f)"
"254","State","Madan Mohan Malaviya University of Technology","Deoria Road Gorakhpur","273010","Uttar Pradesh","2(f) & 12(B)"
"255","State","Madhabdev University","Narayanpur, PO: Dikrong, Lakhimpur, AssamNarayanpur,Lakhimpur","784164","Assam","2(f)"
"256","State","Madhusudan Law University","Station Road, Cuttack","750003","Odisha","2(f)"
"257","State","Madhya Pradesh Medical Science University","NSCB Medical College Campus, Bhedaghat Road, Jabalpur","482003","Madhya Pradesh","2(f)"
"258","State","Madras University","ChepaukChennai","","Tamil Nadu","2(f) & 12(B)"
"259","State","Madurai Kamraj University","Palkainagar,Madurai-625 021.(T.N.).","","Tamil Nadu","2(f) & 12(B)"
"260","State","Magadh University","Bodh Gaya","824234","Bihar","2(f) & 12(B)"
"261","State","Maharahtra University of Health Sciences","Vani Dindori Road, Mhasrul, NashikNashik-422 005","422004","Maharashtra","2(f)"
"262","State","Maharaja Bir Bikram University","AgartalaTripura","","Tripura","2(f) & 12(B)"
"263","State","Maharaja Chhatrasal Bundelkhand Vishwavidyalaya","GOVT MAHARAJA COLLEGE CAMPUS","471001","Madhya Pradesh","2(f)"
"264","State","Maharaja Ganga Singh University","NH-15, Jaisalmer Road, Bikaner","334004","Rajasthan","2(f)"
"265","State","Maharaja Krishnakumarsinji Bhavnagar University","S.V. Patel Campus,Gaurishanker Lake Road,Bhavnagar","364 001","Gujarat","2(f)"
"266","State","Maharaja Ranjit Singh Punjab Technical University","Dabwali Rd, Lal Singh Nagar, Bathinda","151001","Punjab","2(f) & 12(B)"
"267","State","Maharaja Sayajirao University of Baroda","Head Office, Maharaja Fatehsinghrao Gaekwad Road,Fatehgunj,Vadodara","390002","Gujarat","2(f) & 12(B)"
"268","State","Maharaja Sriram Chandra Bhanja Deo University(Earlier North Orissa University)","Sriram Chandra Vihar, Takatpur, Baripada, Bhuabaneswar","757003","Odisha","2(f) & 12(B)"
"269","State","Maharaja Suhel Dev State University","Raidopur, Azamgarh","276001","Uttar Pradesh","2(f)"
"270","State","Maharaja Surajmal Brij University","Chak Sakitara, Kumher, Bharatpur","321201","Rajasthan","2(f)"
"271","State","Maharana Partap Horticultural University","Karnal","132001","Haryana","2(f)"
"272","State","Maharana Pratap University of Agriculture & Technology","Maharana Pratap University of Agriculture & Technology, Udaipur 313001Udaipur-313001","313001","Rajasthan","2(f)"
"273","State","Maharani Cluster University","Palace Road Bangalore Bengaluru","560001","Karnataka","2(f)"
"274","State","Maharashtra Animal & Fishery Sciences University","Futala Lake Road, NagpurSeminary Hills, Nagpur-440 006","440001","Maharashtra","2(f)"
"275","State","Maharashtra National Law University, Aurangabad","Paithan Road, Kanchanwadi, Aurangabad","431005","Maharashtra","2(f)"
"276","State","Maharashtra National Law University, Mumbai","CETTM MTNL Building, Hiranandani Gardens, Powai, Mumbai","400076","Maharashtra","2(f)"
"277","State","Maharashtra National Law University, Nagpur","Training Institute(JOTI), Civil Lines,  C P Club Road, Nagpur","440001","Maharashtra","2(f) & 12(B)"
"278","State","Maharashtra State Skills University","1st, Floor, Elphinstone Technical High School3, Mahapalika Marg, Metro ChowkMumbai","400001","Maharashtra","2(f)"
"279","State","Maharishi Balmiki Sanskrit University","Mundri,Kaithal","136027","Haryana","2(f)"
"280","State","Maharshi Dayanand Saraswati University","Pushkar Bye PassAjmer","305001","Rajasthan","2(f) & 12(B)"
"281","State","Maharshi Dayanand University","Rohtak","124001","Haryana","2(f) & 12(B)"
"282","State","Maharshi Panini Sanskrit Evam Vedic Vishwavidyalaya","Dewas Road, Ujjain,  Madhya Pradesh","456010","Madhya Pradesh","2(f)"
"283","State","Mahatam Gandhi Kashi Vidyapeeth","Varanasi-221 002 (U.P)","","Uttar Pradesh","2(f) & 12(B)"
"284","State","Mahatma Gandhi Chitrakoot Gramodaya Vishwavidyalaya","ChitrakootDistrict Satna","485334","Madhya Pradesh","2(f) & 12(B)"
"285","State","Mahatma Gandhi Udyanikee and Vanikee Vishwavidyalaya","Sankra-PatanDistrict- Durg","491111","Chhattisgarh","2(f)"
"286","State","Mahatma Gandhi University","Post. Yellareddygudem Panagal, Nalgonda","508 254","Telangana","2(f) & 12(B)"
"287","State","Mahatma Gandhi University","Mahishadal, Purba Medinipur","721628","West Bengal","2(f)"
"288","State","Mahatma Gandhi Unversity","Kottayam,PIN - 686 560. (KERALA).","","Kerala","2(f) & 12(B)"
"289","State","Mahatma Jyotiba Phule Rohilkhand University","Doli Lal Agarwal Marg,Bareilly","","Uttar Pradesh","2(f) & 12(B)"
"290","State","Mahatma Phule Krishi Vidyapeeth","RahuriDt.Ahmednagar - 413 722.","","Maharashtra","2(f) & 12(B)"
"291","State","Majuli University of Culture","Patharichuk N.C,Majuli","787054","Assam","2(f)"
"292","State","Makhanlal Chaturvedi National University of Journalism & Communication","B-38, Vikas Bhavan, Press Complex, MP Nagar, Zone-1Bhopal","462 011","Madhya Pradesh","2(f) & 12(B)"
"293","State","Mandya University","M.C. Road,Mandya","571401","Karnataka","2(f)"
"294","State","Mangalore University","Mangalore University Mangalagangotri Karnataka State IndiaMangalore - 574 199.","574199","Karnataka","2(f) & 12(B)"
"295","State","Manipur Technical University","Takyelpat, Imphal, Manipur","795004","Manipur","2(f)"
"296","State","Manipur University of Culture","Palace Compound, Imphal East, Manipur","795001","Manipur","2(f)"
"297","State","Manonmaniam Sundarnar University","Tirunelvelli - 627 008.","","Tamil Nadu","2(f) & 12(B)"
"298","State","Marathwada Agricultural University","Basmat Road, Parbhani","431402","Maharashtra","2(f) & 12(B)"
"299","State","Maulana Abul Kalam Azad University of Technology","BF-142, Sector-1, Salt Lake city,Sector-I, Kolkata","700064","West Bengal","2(f) & 12(B)"
"300","State","Maulana Mazharul Haque Arabic & Persian University","3 Polo Road, Patna","800001","Bihar","2(f)"
"301","State","Mohanlal Sukhadia University","Udaipur","313 001","Rajasthan","2(f) & 12(B)"
"302","State","Mother Teresa Women's University","Registrar, Mother Teresa Women's University, Attuvampatty, Kodaikanal.T.N. - 624 101.","624101","Tamil Nadu","2(f) & 12(B)"
"303","State","Mumbai University","M.G. Road, Fort, Mumbai Mumbai - 400 032.","400032","Maharashtra","2(f) & 12(B)"
"304","State","Munger University","Munger","811201","Bihar","2(f)"
"305","State","Murshidabad University","1,No. Sahid Surya Sen RoadP.O.-Berhampore,District Murshidabad","742101","West Bengal","2(f)"
"306","State","Mysore University","Manasagangotri, Mysuru,  KarnatakaMysore - 570 005.","570006","Karnataka","2(f) & 12(B)"
"307","State","Nalanda Open University","Biscomum Bhawan, West, Gandhi Maidan,  Patna","800001","Bihar","2(f)"
"308","State","Nanaji Deshmukh Pashu Chikitsa Vigyan Vishwavidyalaya","Adhartal, Jabalpur-482004, Madhya PradeshJabalpur","482004","Madhya Pradesh","2(f)"
"309","State","National Academy of Legal Studies & Research University","Justice City, Shameerpet, Medchal District, Telangana State, India","500101","Telangana","2(f) & 12(B)"
"310","State","National Law Institute University","Kerwa Dam Road, BhopalBarkeri KalanBhopal","462044","Madhya Pradesh","2(f) & 12(B)"
"311","State","National law School of India University","Nagarbhavi, BengaluruBangalore - 560 072.","560072","Karnataka","2(f) & 12(B)"
"312","State","National Law University","NH-65, Nagour Road MandoreJodhpur","342304","Rajasthan","2(f) & 12(B)"
"313","State","National Law University","Kathajodi Campus, Sec – 13, Cuttack","753015","Odisha","2(f) & 12(B)"
"314","State","National Law University","Sector-14, Dwarka","110078","Delhi","2(f) & 12(B)"
"315","State","National Law University and Judicial Academy","Hajo Road, Amingaon, Kamrup (Rural), AssamBholanath Mandir Parh, UlubariGuwahati","781031","Assam","2(f) & 12(B)"
"316","State","National Law University Tripura","Narsingarh,Tripura","799 009","Tripura","2(f)"
"317","State","National University of Advanced Legal Studies (NUALS)","HMT Colony P.O., Kalamassery, KochiKochi-682017, Kerala","683503","Kerala","2(f) & 12(B)"
"318","State","National University of Study & Research in Law","P.O. Bukru, Kanke Pithoria Road, Kanke - Nagari, Kanke, RanchiBIT Mesra,Ranchi","834006","Jharkhand","2(f)"
"319","State","Navsari Agriculture University","Navsari Agricultural University, Eru Char Rasta, Dandi Road, Navsari – 396 450 (Gujarat) INDIA","396450","Gujarat","2(f)"
"320","State","Netaji Shubhash Open University","DD-26, Salt Lake, Sector-1, Kolkata","700064","West Bengal","2(f) & 12(B)"
"321","State","Netaji Subhas University of Technology","Sector 3, Dwarka","110078","Delhi","2(f) & 12(B)"
"322","State","Nilamber-Pitamber University","Madininager, Palamu-822101Jharkhand","","Jharkhand","2(f)"
"323","State","Nizam's Institute of Medical Sciences","Punjagutta, Hyderabad","500082","Telangana","2(f)"
"324","State","Nrupathunga University","Nrupathunga Road, Bengaluru,","","Karnataka","2(f)"
"325","State","Odia University","Satyabdi, Puri","752014","Odisha","2(f)"
"326","State","Odisha State Open University","G.M. University Campus, Budharaja, Sambalpur","768004","Odisha","2(f)"
"327","State","Odisha University Of Agriculture & Technology","Surya Nagar, Bhubaneswar","751003","Odisha","2(f) & 12(B)"
"328","State","Odisha University of Health Sciences","Sishu Bhawan Square, Bhubaneswar","751009","Odisha","2(f)"
"329","State","Odisha University of Technology and Research","Kalinga Nagar, Ghatikia, P.O. Mahalaxmi Vihar, Bhubaneswer","751003","Odisha","2(f)"
"330","State","Osmania University","Administrative Building Osmania University Campus Hyderabad-500007, Telangana State, India.PIN - 500 007.","500007","Telangana","2(f) & 12(B)"
"331","State","P. V. Narsimha Rao Telangana Veterinary University","Administrative Office, Rajendranagar, Hyderabad","500030","Telangana","2(f)"
"332","State","Palamuru University","Ayyappa ComplexOpp. Police Head Quarters,Mahabubnagar-509001","","Telangana","2(f)"
"333","State","Pandit Deendayal Upadhyaya Shekhawati University","Nawalgarh Rd, Katrathal, Sikar","332 001","Rajasthan","2(f)"
"334","State","Pandit S N Shukla University","Nawalpur, Shahdol, M.P.","484001","Madhya Pradesh","2(f) & 12(B)"
"335","State","Pandit Sundarlal Sharma (Open) University","Koni Birkona Road, Bilaspur, Chhattisgarh, Bilaspur-495001Chhattisgarh","495009","Chhattisgarh","2(f)"
"336","State","Panjab University","Sector-14/25Chandigarh","160014","Chandigarh","2(f) & 12(B)"
"337","State","Patliputra University","Kankarbagh Road, Near Rajendra Nagar Terminal, Patna","800020","Bihar","2(f)"
"338","State","Patna University","Patna","800005","Bihar","2(f) & 12(B)"
"339","State","Periyar University","Periyar Palkalai Nagar,Salem-11Campus,  Salem- 636 011 (T.N.)","636011","Tamil Nadu","2(f) & 12(B)"
"340","State","Potti Sreeramulu Telugu University","Lalitakala -KshetramHyderabad-500004","","Telangana","2(f) & 12(B)"
"341","State","Presidency University","86/1, College Street, KolkataKolkata","700073","West Bengal","2(f) & 12(B)"
"342","State","Prof. Rajendra Singh (Rajju Bhaiya) University (Formerly Allahabad State University)","Prayagraj,Mirzapur Road, Naini,Prayagraj","211009","Uttar Pradesh","2(f)"
"343","State","Professor Jayashankar Telangana State Agricultural University","Administrative Office, Rajendranagar, Hyderabad","500030","Telangana","2(f) & 12(B)"
"344","State","Pt. Bhagwat Dayal Sharma University of Health Sciences","Rohtak-124001Haryana","","Haryana","2(f) & 12(B)"
"345","State","Pt. Ravishankar Shukla University","Pt. Ravishankar Shukla University, Amanaka G. E. Road Raipur, C.G.Chattisgarh","492010","Chhattisgarh","2(f) & 12(B)"
"346","State","Puducherry Technological University","Pillaichavady, Puducherry","605014","Puducherry","2(f)"
"347","State","Punjab Agriculture University","Ludhiana","141004","Punjab","2(f) & 12(B)"
"348","State","Punjabi University","Rajpura road,  Patiala","147002","Punjab","2(f) & 12(B)"
"349","State","Punyashlok Ahilyadevi Holkar Solapur University","Kegaon, Solapur-Pune National Highway, Solapur-413255, Maharashtra (India)Solapur Pune national HighwayKegaon,Solapur-413255 (Maharashtra)","413255","Maharashtra","2(f) & 12(B)"
"350","State","Purnea University","Purnea","854301","Bihar","2(f)"
"351","State","Rabindra Bharati University","56A, B.T. ROAD, KOLKATA - 700 050Kolkata - 700 050.","700050","West Bengal","2(f) & 12(B)"
"352","State","Rabindranath Tagore University","Hojai,Hojai district","782435","Assam","2(f)"
"353","State","Raichur University","Jnana Tunga CampusYegrageraRaichur","584133","Karnataka","2(f)"
"354","State","Raiganj University","P.O. Raiganj,Dist. Uttar DinajpurWest Bengal","733134","West Bengal","2(f) & 12(B)"
"355","State","Raj Rishi Bhartrihari Matsya University","abu Shobha Ram Govt. Arts College Campus, Alwar","301001","Rajasthan","2(f)"
"356","State","Raja Mahendra Pratap Singh State University","Palwal Road, Lodha, Aligarh","202140","Uttar Pradesh","2(f)"
"357","State","Raja Mansingh Tomar Music & Arts University","Mahadaji ChowkAchaleshwar MargGwalior","474 009","Madhya Pradesh","2(f)"
"358","State","Raja Shankar Shah University, Chhindwara","Library building of Government Autonomous Post Graduate College,Chhindwara,","480001","Madhya Pradesh","2(f)"
"359","State","Rajasthan Ayurveda University","City office,82, Income Tax Col.Paota'C'Road, Jodhpur","","Rajasthan","2(f)"
"360","State","Rajasthan Technical University","Rawat bhata RoadKota-324 010, Rajasthan","","Rajasthan","2(f)"
"361","State","Rajasthan University","J L N MargPIN - 302 004.","302004","Rajasthan","2(f) & 12(B)"
"362","State","Rajasthan University of Health Sciences","Kumbha Marg, Pratap Nagar,Sector-18, Tonk Road,Sanganer, Jaipur","302033","Rajasthan","2(f) & 12(B)"
"363","State","Rajasthan University of Veterinary & Animal Sciences","Vijay Bhawan Palace Complex, Veterinary University Road, Bikaner","334001","Rajasthan","2(f) & 12(B)"
"364","State","Rajendra University","Prajna Vihar, Balangir","767002","Odisha","2(f)"
"365","State","Rajiv Gandhi Prodoyogiki Vishwavidyalaya","Airport BypassGandhi NagarBhopal (M.P.)","462036","Madhya Pradesh","2(f) & 12(B)"
"366","State","Rajiv Gandhi University of Health Science","JayanagarBangalore - 560 041.","","Karnataka","2(f)"
"367","State","Rajiv Gandhi University of Knowledge Technologies","V. R. Mansions, Kunchanapalli, Guntur District","522501","Andhra Pradesh","2(f)"
"368","State","Rajiv Gandhi University of Knowledge Technology","RGUKT BASAR, MA:BASAR, DT:NIRMAL, TELANGANA, PIN 504107IIIT-H Campus, GachibowliHyderabad","504107","Telangana","2(f) & 12(B)"
"369","State","Rajmata Vijayaraje Scindia Krishi Vishwa Vidyalaya","Opp. Mela GroundRace Course RoadGwalior,Madhya Pradesh","474 002","Madhya Pradesh","2(f)"
"370","State","Rama Devi Women's University","Vidya Vihar, Bhoi Nagar, Bhubaneswar","751022","Odisha","2(f) & 12(B)"
"371","State","Ranchi University","Ranchi,PIN - 834 008. (JHARKHAND)","","Jharkhand","2(f) & 12(B)"
"372","State","Rani Channamma University","Rani Channamma University, Vidyasangama Campus, Bhutaramanahatti, PB-NH 04,  Belagavi-Karnataka-IndiaP.B Highway,Belagavi","591156","Karnataka","2(f) & 12(B)"
"373","State","Rani Durgavati Vishwavidyalaya","Jabalpur - 482 001. (M.P)","","Madhya Pradesh","2(f) & 12(B)"
"374","State","Rani Rashmoni Green University(formerly West Bengal Green University.)","At the premises of Singur General Degree College, Singur, Hooghly, West Bengal","712409","West Bengal","2(f)"
"375","State","Rashtrasant Tukadoji Maharaj Nagpur University","Chhatrapati Shivaji Maharaj Administrative Premises,Ravindranath Tagore Marg,Nagpur","440001","Maharashtra","2(f) & 12(B)"
"376","State","Ravenshaw University","Cuttack","753003","Odisha","2(f) & 12(B)"
"377","State","Rayalaseema University","Nandyala Road,Kurnool","518002","Andhra Pradesh","2(f) & 12(B)"
"378","State","Sadhu Ram Chand Murmu University of Jhargram( formerly Jhargram University)","Jhargram Raj College, Jhagram","721507","West Bengal","2(f)"
"379","State","Sambalpur University","Jyoti Vihar, Burla, Sambalpur","768019","Odisha","2(f) & 12(B)"
"380","State","Sampurnanand Sanskrit Vishwavidyalaya","Varanasi - 221 002. (UP)","","Uttar Pradesh","2(f) & 12(B)"
"381","State","Sanchi University of Buddhist-Indic Studies","2nd Floor, Institute of Good Governance & Policy AnalysisBhadbhada Square,Bhopal","462003","Madhya Pradesh","2(f) & 12(B)"
"382","State","Sant Gadge Baba Amravati University","Camp, ti,Amravati-444602(M.S.)","","Maharashtra","2(f) & 12(B)"
"383","State","Sant Gahira Guru Vishwavidyalaya (formerly Sarguja University)","Sant Gahira Guru VishwavidyalayaSarguja-Ambikapur- Darripara, Hospital Road Ambikapur Distt. Surguja","497001","Chhattisgarh","2(f)"
"384","State","Sardar Beant Singh State University","Pathankot Road, Bariar, Gurdaspur","143521","Punjab","2(f)"
"385","State","Sardar Krushinagar Dantiwada Agricultural University","Sardarkrushinagar Dantiwada Agricultural University, Sardarkrushinagar- 385 506, District. Banaskantha (Gujarat)Dist. Banaskantha","385506","Gujarat","2(f)"
"386","State","Sardar Patel University","Near Saheed Chowk, Nana Bazar, Vallabh Vidyanagar, Anand, GujaratAnand-388 120. (GUJARAT)","388120","Gujarat","2(f) & 12(B)"
"387","State","Sardar Patel University Mandi","Vallabh Government College CampusAdministrative BlockMandi Sadar, Mandi","175001","Himachal Pradesh","2(f)"
"388","State","Sardar Patel University of Police, Security & Criminal Justice","Opp. Gramin Police line, Mathania Road, Daijar, Jodhpur","342304","Rajasthan","2(f)"
"389","State","Sardar Vallabh Bhai Patel University of Agriculture & Technology","Modipuram, Meerut,  U.P-250110","","Uttar Pradesh","2(f)"
"390","State","Satavahana University","SATAVAHANA UNIVERSITY, MALKAPUR ROAD, KARIMNAGAR, TELANGANA STATEAndhra Pradesh-505001","505002","Telangana","2(f)"
"391","State","Saurashtra University","Kalavad RoadRajkot Gujarat","360 005","Gujarat","2(f) & 12(B)"
"392","State","Savitribai Phule Pune University","Ganeshkhind Road,  Pune, Maharashtra, India.Pune","411007","Maharashtra","2(f) & 12(B)"
"393","State","Shaheed Bhagat Singh State University","Moga Road, Firozpur","152001","Punjab","2(f)"
"394","State","Shaheed Mahendra Karma Vishvidyalaya","Dharampura 2, Jagdalpur, Distt. Bastar, ChhattisgarhChhattisgarh -494005","494001","Chhattisgarh","2(f)"
"395","State","Shaheed Nandkumar Patel Vishwavidyalaya","Garhumaria, Odisha Road,Raigarh","496001","Chhattisgarh","2(f)"
"396","State","Sher-e-Kashmir University of Agricultural Science & Technology","Shalimar, srinagar J and K Srinagar-190 001. (J&K)","190025","Jammu and Kashmir","2(f) & 12(B)"
"397","State","Sher-e-Kashmir University of Agricultural Science & Technology, Jammu","Jammu","","Jammu and Kashmir","2(f)"
"398","State","Shivaji University","Vidyanagar KolhapurKolhapur - 416 004.","416004","Maharashtra","2(f) & 12(B)"
"399","State","Shree Sankaracharaya University of Sanskrit","P.B.No. 14, Kalady District,ErnakulamKalady","","Kerala","2(f) & 12(B)"
"400","State","Shree Somnath Sanskrit University","Ta: VeravalDistrict Junagarh","","Gujarat","2(f) & 12(B)"
"401","State","Shri Govind Guru University","Government Polytechnic Campus, RTO Road, Gadukpur, Godhra, Dist. Panchmahal (Gujarat)-389001 Gadukpur,Godhra,Dist. Panchmahals","389001","Gujarat","2(f)"
"402","State","Shri Jagannath Sanskrit Vishwavidyalaya","Shikha Rd, Penthakata, Puri","752003","Odisha","2(f) & 12(B)"
"403","State","Shri Krishna AYUSH University","Umri Road, Sector-8,Kurukshetra","","Haryana","2(f)"
"404","State","Shri Mata Vaishno Devi University","SMVD University, Kakryal, Katra, J&KKatra,J&K","182320","Jammu and Kashmir","2(f) & 12(B)"
"405","State","Shri Vishwakarma Skill University","Dudhola, Palwal","121102","Haryana","2(f)"
"406","State","Sibsagar University","P.O. Joysagar, Dist. Sivasagar","785665","Assam","2(f)"
"407","State","Siddharth University","Siddharth University Kapilvastu, Siddharth NagarSiddharth Nagar","272202","Uttar Pradesh","2(f)"
"408","State","Sidho-Kanho-Birsha University","Sidho-Kanho-Birsha University, Rachi Road, PO- Sainik School, Dist.- Purulia, PIN-723104, West BengalRanchi Road Campus,Near Sainik School,Purulia","723104","West Bengal","2(f) & 12(B)"
"409","State","Sido Kanhu Murmu University","Dighi Campus, Dumka - Pakur Road, Dumka Dumka,","814110","Jharkhand","2(f) & 12(B)"
"410","State","Sikkim National Law University","Sikkim Government Law CollegeBurtuk(Campus)Gangtok","737101","Sikkim","2(f)"
"411","State","Smt. Nathibai Damodar Thackersey Women's University","1,Nathibai Thackersay Rd.Mumbai - 400 020.","","Maharashtra","2(f) & 12(B)"
"412","State","Soban Singh Jeena University","Almora","","Uttarakhand","2(f)"
"413","State","Sports University of Haryana","Near 20th Mile Stone (Biswa-Mile), NH-44, Rai, Sonipat","131029","Haryana","2(f)"
"414","State","Sree Narayanguru Open University","Kollam","691601","Kerala","2(f)"
"415","State","Sri Dev Suman Uttarakhand Vishwavidyalaya","Badshahithaul, Tehri Garhwal","249 199","Uttarakhand","2(f)"
"416","State","Sri Guru Teg Bahadur State University of Law","Sarhali Rd, Patti, District, Tarn Taran","143416","Punjab","2(f)"
"417","State","Sri Konda Laxman Telangana State Horticultural University","Mulugu, Siddipet district, Hyderabad","502279","Telangana","2(f)"
"418","State","Sri krishnadevaraya University","Sri Venkateswarpuram,Anantapuram","515003","Andhra Pradesh","2(f) & 12(B)"
"419","State","Sri Padmavati Mahila Vishwavidyalayam","Padmavathi Nagar, Tirupati,  Chittoor (Dist)","517502","Andhra Pradesh","2(f) & 12(B)"
"420","State","Sri Sri Aniruddhdeva Sports University","DICC BUILDING, 2ND FLOOR, ChabuaNEAR DISTRICT LIBRARY, DISTT. DIBRUGARH, Dibrugarh","786003","Assam","2(f)"
"421","State","Sri Venkateswara Institute of Medical Sciences","Alipiri Road, Tirupati, Chittoor Dist","517507","Andhra Pradesh","2(f) & 12(B)"
"422","State","Sri Venkateswara University","Tirupati","517502","Andhra Pradesh","2(f) & 12(B)"
"423","State","Sri Venkateswara Vedic University","Alipiri-Chandragiri Bypass Road, Tirupati, Chittoor Dist","517502","Andhra Pradesh","2(f)"
"424","State","Sri Venkateswara Veterinary University","Dr. YSR Bhavan, Tirupati","517502","Andhra Pradesh","2(f) & 12(B)"
"425","State","Srimanta Sankaradeva University of Health Sciences","Narakasur Hilltop, BhangagarhGuwahati","781032","Assam","2(f)"
"426","State","Swami Keshwanand Rajasthan Agricultural University","Beechwal, Sriganganagar Road,Bikaner","","Rajasthan","2(f)"
"427","State","Swami Ramanand Teerth Marathwada University","Vishnupuri, Nanded","431606","Maharashtra","2(f) & 12(B)"
"428","State","Swarnim Gujarat Sports University","Commerce College Campus, Opp Youth Hostel, Sector 15, Gandhinagar, Gujarat PTC Building Campus, Gandhinagar","382016","Gujarat","2(f)"
"429","State","T.M. Bhagalpur University","Bhagalpur","","Bihar","2(f) & 12(B)"
"430","State","Tamil Nadu Fisheries University","Vettar River View Campus, NagapattinamNagapattinam","611002","Tamil Nadu","2(f) & 12(B)"
"431","State","Tamil Nadu Open University","No. 577, Anna Salai,Saidapet,Chennai","600015","Tamil Nadu","2(f) & 12(B)"
"432","State","Tamil Nadu Physical Education and Sports University","Melakottaiyur, ChennaiSampat Maaligai, college Road,Chennai-600006","600127","Tamil Nadu","2(f)"
"433","State","Tamil Nadu Teacher Education University","Gangaiamman koil street, Karapakkam, Chennai,","600097","Tamil Nadu","2(f) & 12(B)"
"434","State","Tamil University","Trichy Road, Thanjavur,PIN - 613 005. (T.N.)","","Tamil Nadu","2(f) & 12(B)"
"435","State","Tamilnadu Agricultural University","Lawley Road, Coimbatore 641003, Tamilnadu","641003","Tamil Nadu","2(f) & 12(B)"
"436","State","Tamilnadu Dr. Ambedkar Law University","Poompozhil,5.Dr.D.G.S. dinakaranSalai, Raja Annamalai Puram,Chennai-600028, (T.N.)","","Tamil Nadu","2(f) & 12(B)"
"437","State","Tamilnadu Dr. M.G.R.Medical University","NO.69, ANNA SALAI, GUINDY, CHENNAI -600 032Chennai- 600 032.","600032","Tamil Nadu","2(f) & 12(B)"
"438","State","Tamilnadu National Law University","Navalur Kuttapattu,Srirangam Taluk,Tiruchirapalli","620 009","Tamil Nadu","2(f) & 12(B)"
"439","State","Tamilnadu Veterinary & Animal Sciences University","Tamil Nadu Veterinary and Animal Sciences University, Madhavaram Milk Colony, Chennai-51, Tamil Nadu","600051","Tamil Nadu","2(f) & 12(B)"
"440","State","Telangana University","Vil: Nadpally, Suddapally, Mdl: Dichpally, Dist.: NizamabadNizamabad- 503 322Andhra Pradesh","503322","Telangana","2(f) & 12(B)"
"441","State","The Bengal Engineering & Science University","ShibpurHowrah","","West Bengal","2(f)"
"442","State","The Maharaja Bhupinder Singh Punjab Sports University","Mohindra Kothi, Near Fountain Chowk, Patiala","147001","Punjab","2(f)"
"443","State","The National Law University of Meghalaya","Mayurbhanj Complex, Nongthymmai, Shillong","793014","Meghalaya","2(f)"
"444","State","The Rajiv Gandhi National University of Law","Sidhuwal, Bhadson Road, Patiala","147006","Punjab","2(f) & 12(B)"
"445","State","The Sanskrit College and University","Bankim Chaterjee StreetKolkata","700073","West Bengal","2(f)"
"446","State","The Tamil Nadu Dr.J Jayalalithaa Music and Fine Arts University","Dr. D.G.S. Dinakaran SalaiChennai","600028","Tamil Nadu","2(f)"
"447","State","The West Bengal National University of Juridical Science","Aranya Bhavan,10A LA Blk.,S.L City,Calcutta","","West Bengal","2(f) & 12(B)"
"448","State","The West Bengal University of Health Sciences","DD-36, Secotor-1 Salt LakeKolkata","700064","West Bengal","2(f) & 12(B)"
"449","State","Thiruvalluvar University","Serkkadu, VelloreVellore DistrictTamil Nadu","632 115","Tamil Nadu","2(f) & 12(B)"
"450","State","Thunchath Ezhuthachan Malayalam University","Vakad po, Vakad, Tirur, Malappuram DistrictVakkad PO,  Tirur,Malappuram","676502","Kerala","2(f) & 12(B)"
"451","State","Tumkur University","Tumkur University B H Road, Tumkur, Karnataka, IndiaB.H. Road, Tumkur","572103","Karnataka","2(f) & 12(B)"
"452","State","U.P. Pandit Deen Dayal Upadhyaya Pashu Chikitsa Vigyan Vishwavidhyalaya Evam Go-Anusandhan Sansthan","College of Veterinary Science and Animal Husbandry, DUVASU, MathuraUttar Pradesh","281001","Uttar Pradesh","2(f)"
"453","State","U.P. Rajarshi Tandon Open University","Shantipuram (Sector-F), Phaphamau, Prayagraj, Uttar Pradesh.(Sector-F)PhaphamauAllahabad-211013","211013","Uttar Pradesh","2(f)"
"454","State","U.P.King George's University of Dental Sciences","Lucknow","","Uttar Pradesh","2(f)"
"455","State","University of Agricultural Sciences","Lingasuguru Road,Raichur","584104","Karnataka","2(f) & 12(B)"
"456","State","University of Agricultural Sciences Banglore","GKVK -Campus,Bangalore","560 024","Karnataka","2(f) & 12(B)"
"457","State","University of Agricultural Sciences Dharwad","University of Agricultural Sciences, Dharwad (Karnataka)Dharwad","580005","Karnataka","2(f) & 12(B)"
"458","State","University of Gour Banga","Post Office - Mokdumpur, District - Malda,  West Bengal, Pin Code - 732103Distt. Malda","732103","West Bengal","2(f) & 12(B)"
"459","State","University of Horticultural Sciences","NEAR SEMIKERI CROSS, UDYANAGIRI, NAVANAGAR, BAGALKOTNear Seemikeri Cross,Bagalkot","587104","Karnataka","2(f)"
"460","State","University of Kota","Swami Vivekananda Nagar, Kota","324005","Rajasthan","2(f) & 12(B)"
"461","State","University of Ladakh","Melongthang, Leh-Ladakh near FRL, Leh","194101","Ladakh","2(f)"
"462","State","University of Lucknow","Babuganj,Hasanganj,Lucknow","226007","Uttar Pradesh","2(f) & 12(B)"
"463","State","University of North Bengal","PO: North Bengal University, Dist: Darjeeling, West BengalPO North Bengal University,District Darjeeling","734013","West Bengal","2(f) & 12(B)"
"464","State","University of Visvesvaraya College of Engineering","K. R. Circle, Dr Ambedkar Veedhi, Bengaluru","560001","Karnataka","2(f)"
"465","State","Utkal University","Vani Vihar, Bhubaneshwar","751 004","Odisha","2(f) & 12(B)"
"466","State","Utkal University of Culture","SANSKRUTI VIHAR, MADANPUR, Bhubaneswar","752054","Odisha","2(f)"
"467","State","Uttar Banga Krishi Vishwavidyalaya","P.O. Pundibari, Dist. Coochbehar, PIN- 736165Cooch Behar, West Bengal-736165","736165","West Bengal","2(f)"
"468","State","Uttar Pradesh University of Medical Sciences","Saifai,Etawah","206130","Uttar Pradesh","2(f)"
"469","State","Uttarakhand Ayurved University","Railway Road, Harrawala, DehradunRajpur RoadDehradun","248001","Uttarakhand","2(f)"
"470","State","Uttarakhand Open University","Teenpani Bypass, Rampur Road, HaldwaniPost Office:- Industrial EstateHaldwani (Nainital)","263139","Uttarakhand","2(f)"
"471","State","Uttarakhand Sanskrit University","NH-58, BHEL More,  Haridwar-Delhi National Highway,P.O. BahadarabadHaridwar","249 402","Uttarakhand","2(f)"
"472","State","Uttarakhand Technical University","Uttarakhand Technical University,Suddhowal post office chandan wadi,dehradun Uttarkhandwala, Dehrdun","248007","Uttarakhand","2(f)"
"473","State","Vardhman Mahaveer Open University","Rawatbhata Road, KotaRAJASTHAN","324021","Rajasthan","2(f) & 12(B)"
"474","State","Veer Bahadur Singh Purvanchal University","Shahganj Road, JaunpurPIN-222002   (U.P.)","","Uttar Pradesh","2(f) & 12(B)"
"475","State","Veer Chandra Singh Garhwali Uttarakhand University of Horticulture & Forestry","VCSG Uttarakhand University of Horticulture & Forestry, Bharsar, Pauri Garhwal , UttarakhandUttrakhand","246123","Uttarakhand","2(f)"
"476","State","Veer Kunwar Singh University","Ara","802301","Bihar","2(f) & 12(B)"
"477","State","Veer Narmad South Gujarat University","Udhna-Magdalla Road, Surat","395007","Gujarat","2(f) & 12(B)"
"478","State","Veer Surendra Sai Institute of Medical Science and Research","Ayuvihar, Burla, Sambalpur","768017","Odisha","2(f) & 12(B)"
"479","State","Veer Surendra Sai University of Technology","Siddhi Vihar, Burla,  Dist. Sambalpur","768018","Odisha","2(f) & 12(B)"
"480","State","Vesveswaraiah Technological University","Jnana Sangama,Belgaum","590018","Karnataka","2(f) & 12(B)"
"481","State","Vidya Sagar University","PO. -Vidyasagar UniversityMidnapore-721102,Dist.-paschim Mediripur, (W.B.)","","West Bengal","2(f) & 12(B)"
"482","State","Vijayanagara Sri Krishnadevaraya University","BallariVinayaka Nagar,Contonment,Bellary","583105","Karnataka","2(f) & 12(B)"
"483","State","Vikram University","Ujjain,","456 010","Madhya Pradesh","2(f) & 12(B)"
"484","State","Vikrama Simhapuri University","kakutur,Venkatachalam (M.D.),Nellore","524324","Andhra Pradesh","2(f) & 12(B)"
"485","State","Vinoba Bhave University","Hazaribagh,PIN - 825 301. (JHARKHAND)Post Box No.-31","","Jharkhand","2(f) & 12(B)"
"486","State","Vishvakarma Skills University","Jawahar Lal Nehru Marg, Mahesh Nagar Phatak, Tilak Nagar, Jaipur","302015","Rajasthan","2(f)"
"487","State","West Bengal State University","Berunanpukuria,Malikapur,Barasat, 24 Parganas(North),Kolkata - 700126Building 10knc, Kolkata-700124","700126","West Bengal","2(f) & 12(B)"
"488","State","West Bengal University of Animal and Fishery Sciences","37 & 68, ksudiram Bose Sarani, Kolkata-700037","700037","West Bengal","2(f) & 12(B)"
"489","State","West Bengal University of Teachers, Training, Education Planning and Administration","25/2 & 25/3, Ballygunge Circular RoadKolkata","700019","West Bengal","2(f)"
"490","State","Yashwant Rao Chavan Maharashtra Open University","Dnyangangotri Near Gangapur Dam, Nashik,  Maharashtra(India)Gangapur Dam,Nasik-422222","422222","Maharashtra","2(f) & 12(B)"
"491","State","Yogi Vemana University","Vemana Puram,Yogi Vemana University Rd,Ganganapalle","516005","Andhra Pradesh","2(f) & 12(B)"
"492","State","Young India Skills University","ESCI Campus, Gachibowli, Hyderabad","600032","Telangana","2(f)"